{
    "links": {
        "self": "http://www.neowsapp.com/rest/v1/neo/3405336?api_key=iIulBulltgU6a56xZRHN4H3l9WmuAYTsLGpBGhQ2"
    },
    "id": "3405336",
    "neo_reference_id": "3405336",
    "name": "(2008 EM68)",
    "designation": "2008 EM68",
    "nasa_jpl_url": "http://ssd.jpl.nasa.gov/sbdb.cgi?sstr=3405336",
    "absolute_magnitude_h": 27.5,
    "estimated_diameter": {
        "kilometers": {
            "estimated_diameter_min": 0.008405334,
            "estimated_diameter_max": 0.0187948982
        },
        "meters": {
            "estimated_diameter_min": 8.4053340207,
            "estimated_diameter_max": 18.7948982439
        },
        "miles": {
            "estimated_diameter_min": 0.0052228308,
            "estimated_diameter_max": 0.0116786047
        },
        "feet": {
            "estimated_diameter_min": 27.5765560686,
            "estimated_diameter_max": 61.6630539546
        }
    },
    "is_potentially_hazardous_asteroid": false,
    "close_approach_data": [
        {
            "close_approach_date": "2008-03-10",
            "close_approach_date_full": "2008-Mar-10 19:39",
            "epoch_date_close_approach": 1205177940000,
            "relative_velocity": {
                "kilometers_per_second": "17.6996077952",
                "kilometers_per_hour": "63718.588062837",
                "miles_per_hour": "39592.2526771556"
            },
            "miss_distance": {
                "astronomical": "0.0014757421",
                "lunar": "0.5740636769",
                "kilometers": "220767.874829327",
                "miles": "137178.7963536326"
            },
            "orbiting_body": "Earth"
        },
        {
            "close_approach_date": "2008-03-10",
            "close_approach_date_full": "2008-Mar-10 23:22",
            "epoch_date_close_approach": 1205191320000,
            "relative_velocity": {
                "kilometers_per_second": "18.4267555879",
                "kilometers_per_hour": "66336.3201163838",
                "miles_per_hour": "41218.8095745386"
            },
            "miss_distance": {
                "astronomical": "0.0031759732",
                "lunar": "1.2354535748",
                "kilometers": "475118.825897084",
                "miles": "295225.1486403992"
            },
            "orbiting_body": "Moon"
        }
    ],
    "orbital_data": {
        "orbit_id": "6",
        "orbit_determination_date": "2017-04-06 09:04:02",
        "first_observation_date": "2008-03-08",
        "last_observation_date": "2008-03-08",
        "data_arc_in_days": null,
        "observations_used": 12,
        "orbit_uncertainty": "9",
        "minimum_orbit_intersection": ".000182091",
        "jupiter_tisserand_invariant": "4.272",
        "epoch_osculation": "2454533.5",
        "eccentricity": ".5763682215713548",
        "semi_major_axis": "1.536308116597369",
        "inclination": "4.760810029218339",
        "ascending_node_longitude": "350.7097621191127",
        "orbital_period": "695.5300759514064",
        "perihelion_distance": ".6508289396485059",
        "perihelion_argument": "266.6197839894313",
        "aphelion_distance": "2.421787293546232",
        "perihelion_time": "2454586.738955788808",
        "mean_anomaly": "332.4440038660385",
        "mean_motion": ".5175908453815757",
        "equinox": "J2000",
        "orbit_class": {
            "orbit_class_type": "APO",
            "orbit_class_description": "Near-Earth asteroid orbits which cross the Earth’s orbit similar to that of 1862 Apollo",
            "orbit_class_range": "a (semi-major axis) > 1.0 AU; q (perihelion) < 1.017 AU"
        }
    },
    "is_sentry_object": false
}